[{"CCSDS_OMM_VERS":"2.0","COMMENT":"GENERATED VIA SPACE-TRACK.ORG API","CREATION_DATE":"2020-01-31T19:06:58","ORIGINATOR":"18 SPCS","OBJECT_NAME":"ONEWEB-0007","OBJECT_ID":"2019-010D","CENTER_NAME":"EARTH","REF_FRAME":"TEME","TIME_SYSTEM":"UTC","MEAN_ELEMENT_THEORY":"SGP4","EPOCH":"2020-01-31T13:52:24.917952","MEAN_MOTION":"13.21814021","ECCENTRICITY":"0.00017680","INCLINATION":"87.9226","RA_OF_ASC_NODE":"1.8844","ARG_OF_PERICENTER":"76.6250","MEAN_ANOMALY":"283.5081","EPHEMERIS_TYPE":"0","CLASSIFICATION_TYPE":"U","NORAD_CAT_ID":"44060","ELEMENT_SET_NO":"999","REV_AT_EPOCH":"4484","BSTAR":"-0.00001078200000","MEAN_MOTION_DOT":"0.00000009","MEAN_MOTION_DDOT":"0.0000000000000","SEMIMAJOR_AXIS":"7555.936","PERIOD":"108.941","APOAPSIS":"1179.136","PERIAPSIS":"1176.465","OBJECT_TYPE":"PAYLOAD","RCS_SIZE":"LARGE","COUNTRY_CODE":"UK","LAUNCH_DATE":"2019-02-27","SITE":"FRGUI","DECAY_DATE":null,"FILE":"2693117","GP_ID":"147773569","TLE_LINE0":"0 ONEWEB-0007","TLE_LINE1":"1 44060U 19010D   20031.57806618 +.00000009 +00000-0 -10782-4 0  9994","TLE_LINE2":"2 44060 087.9226 001.8844 0001768 076.6250 283.5081 13.21814021044843"},{"CCSDS_OMM_VERS":"2.0","COMMENT":"GENERATED VIA SPACE-TRACK.ORG API","CREATION_DATE":"2020-02-01T01:32:41","ORIGINATOR":"18 SPCS","OBJECT_NAME":"ONEWEB-0007","OBJECT_ID":"2019-010D","CENTER_NAME":"EARTH","REF_FRAME":"TEME","TIME_SYSTEM":"UTC","MEAN_ELEMENT_THEORY":"SGP4","EPOCH":"2020-01-31T17:30:25.375968","MEAN_MOTION":"13.21814024","ECCENTRICITY":"0.00017650","INCLINATION":"87.9226","RA_OF_ASC_NODE":"1.8542","ARG_OF_PERICENTER":"76.6222","MEAN_ANOMALY":"283.5109","EPHEMERIS_TYPE":"0","CLASSIFICATION_TYPE":"U","NORAD_CAT_ID":"44060","ELEMENT_SET_NO":"999","REV_AT_EPOCH":"4486","BSTAR":"-0.00000588740000","MEAN_MOTION_DOT":"0.00000011","MEAN_MOTION_DDOT":"0.0000000000000","SEMIMAJOR_AXIS":"7555.936","PERIOD":"108.941","APOAPSIS":"1179.134","PERIAPSIS":"1176.467","OBJECT_TYPE":"PAYLOAD","RCS_SIZE":"LARGE","COUNTRY_CODE":"UK","LAUNCH_DATE":"2019-02-27","SITE":"FRGUI","DECAY_DATE":null,"FILE":"2693254","GP_ID":"147815378","TLE_LINE0":"0 ONEWEB-0007","TLE_LINE1":"1 44060U 19010D   20031.72946037 +.00000011 +00000-0 -58874-5 0  9999","TLE_LINE2":"2 44060 087.9226 001.8542 0001765 076.6222 283.5109 13.21814024044860"},{"CCSDS_OMM_VERS":"2.0","COMMENT":"GENERATED VIA SPACE-TRACK.ORG API","CREATION_DATE":"2020-02-01T16:41:43","ORIGINATOR":"18 SPCS","OBJECT_NAME":"ONEWEB-0007","OBJECT_ID":"2019-010D","CENTER_NAME":"EARTH","REF_FRAME":"TEME","TIME_SYSTEM":"UTC","MEAN_ELEMENT_THEORY":"SGP4","EPOCH":"2020-02-01T06:13:26.979456","MEAN_MOTION":"13.21814044","ECCENTRICITY":"0.00017630","INCLINATION":"87.9227","RA_OF_ASC_NODE":"1.7485","ARG_OF_PERICENTER":"76.5545","MEAN_ANOMALY":"283.5785","EPHEMERIS_TYPE":"0","CLASSIFICATION_TYPE":"U","NORAD_CAT_ID":"44060","ELEMENT_SET_NO":"999","REV_AT_EPOCH":"4493","BSTAR":"0.00000556740000","MEAN_MOTION_DOT":"0.00000015","MEAN_MOTION_DDOT":"0.0000000000000","SEMIMAJOR_AXIS":"7555.935","PERIOD":"108.941","APOAPSIS":"1179.133","PERIAPSIS":"1176.468","OBJECT_TYPE":"PAYLOAD","RCS_SIZE":"LARGE","COUNTRY_CODE":"UK","LAUNCH_DATE":"2019-02-27","SITE":"FRGUI","DECAY_DATE":null,"FILE":"2693665","GP_ID":"147844293","TLE_LINE0":"0 ONEWEB-0007","TLE_LINE1":"1 44060U 19010D   20032.25934004 +.00000015 +00000-0 +55674-5 0  9997","TLE_LINE2":"2 44060 087.9227 001.7485 0001763 076.5545 283.5785 13.21814044044931"},{"CCSDS_OMM_VERS":"2.0","COMMENT":"GENERATED VIA SPACE-TRACK.ORG API","CREATION_DATE":"2020-02-02T02:42:46","ORIGINATOR":"18 SPCS","OBJECT_NAME":"ONEWEB-0007","OBJECT_ID":"2019-010D","CENTER_NAME":"EARTH","REF_FRAME":"TEME","TIME_SYSTEM":"UTC","MEAN_ELEMENT_THEORY":"SGP4","EPOCH":"2020-02-01T09:51:27.474624","MEAN_MOTION":"13.21814052","ECCENTRICITY":"0.00018220","INCLINATION":"87.9232","RA_OF_ASC_NODE":"1.7181","ARG_OF_PERICENTER":"76.5292","MEAN_ANOMALY":"283.6045","EPHEMERIS_TYPE":"0","CLASSIFICATION_TYPE":"U","NORAD_CAT_ID":"44060","ELEMENT_SET_NO":"999","REV_AT_EPOCH":"4495","BSTAR":"0.00009700400000","MEAN_MOTION_DOT":"0.00000053","MEAN_MOTION_DDOT":"0.0000000000000","SEMIMAJOR_AXIS":"7555.935","PERIOD":"108.941","APOAPSIS":"1179.177","PERIAPSIS":"1176.424","OBJECT_TYPE":"PAYLOAD","RCS_SIZE":"LARGE","COUNTRY_CODE":"UK","LAUNCH_DATE":"2019-02-27","SITE":"FRGUI","DECAY_DATE":null,"FILE":"2693829","GP_ID":"147866996","TLE_LINE0":"0 ONEWEB-0007","TLE_LINE1":"1 44060U 19010D   20032.41073466 +.00000053 +00000-0 +97004-4 0  9995","TLE_LINE2":"2 44060 087.9232 001.7181 0001822 076.5292 283.6045 13.21814052044956"},{"CCSDS_OMM_VERS":"2.0","COMMENT":"GENERATED VIA SPACE-TRACK.ORG API","CREATION_DATE":"2020-02-01T22:20:15","ORIGINATOR":"18 SPCS","OBJECT_NAME":"ONEWEB-0007","OBJECT_ID":"2019-010D","CENTER_NAME":"EARTH","REF_FRAME":"TEME","TIME_SYSTEM":"UTC","MEAN_ELEMENT_THEORY":"SGP4","EPOCH":"2020-02-01T20:45:28.853856","MEAN_MOTION":"13.21814071","ECCENTRICITY":"0.00018190","INCLINATION":"87.9232","RA_OF_ASC_NODE":"1.6276","ARG_OF_PERICENTER":"76.4410","MEAN_ANOMALY":"283.6926","EPHEMERIS_TYPE":"0","CLASSIFICATION_TYPE":"U","NORAD_CAT_ID":"44060","ELEMENT_SET_NO":"999","REV_AT_EPOCH":"4501","BSTAR":"0.00012157000000","MEAN_MOTION_DOT":"0.00000063","MEAN_MOTION_DDOT":"0.0000000000000","SEMIMAJOR_AXIS":"7555.935","PERIOD":"108.941","APOAPSIS":"1179.175","PERIAPSIS":"1176.426","OBJECT_TYPE":"PAYLOAD","RCS_SIZE":"LARGE","COUNTRY_CODE":"UK","LAUNCH_DATE":"2019-02-27","SITE":"FRGUI","DECAY_DATE":null,"FILE":"2693692","GP_ID":"147845220","TLE_LINE0":"0 ONEWEB-0007","TLE_LINE1":"1 44060U 19010D   20032.86491729  .00000063  00000-0  12157-3 0  9996","TLE_LINE2":"2 44060  87.9232   1.6276 0001819  76.4410 283.6926 13.21814071 45014"},{"CCSDS_OMM_VERS":"2.0","COMMENT":"GENERATED VIA SPACE-TRACK.ORG API","CREATION_DATE":"2020-02-02T16:47:54","ORIGINATOR":"18 SPCS","OBJECT_NAME":"ONEWEB-0007","OBJECT_ID":"2019-010D","CENTER_NAME":"EARTH","REF_FRAME":"TEME","TIME_SYSTEM":"UTC","MEAN_ELEMENT_THEORY":"SGP4","EPOCH":"2020-02-02T09:28:30.453888","MEAN_MOTION":"13.21814114","ECCENTRICITY":"0.00018110","INCLINATION":"87.9233","RA_OF_ASC_NODE":"1.5219","ARG_OF_PERICENTER":"76.4773","MEAN_ANOMALY":"283.6563","EPHEMERIS_TYPE":"0","CLASSIFICATION_TYPE":"U","NORAD_CAT_ID":"44060","ELEMENT_SET_NO":"999","REV_AT_EPOCH":"4508","BSTAR":"0.00013504000000","MEAN_MOTION_DOT":"0.00000069","MEAN_MOTION_DDOT":"0.0000000000000","SEMIMAJOR_AXIS":"7555.935","PERIOD":"108.941","APOAPSIS":"1179.169","PERIAPSIS":"1176.432","OBJECT_TYPE":"PAYLOAD","RCS_SIZE":"LARGE","COUNTRY_CODE":"UK","LAUNCH_DATE":"2019-02-27","SITE":"FRGUI","DECAY_DATE":null,"FILE":"2694136","GP_ID":"147893986","TLE_LINE0":"0 ONEWEB-0007","TLE_LINE1":"1 44060U 19010D   20033.39479692 +.00000069 +00000-0 +13504-3 0  9993","TLE_LINE2":"2 44060 087.9233 001.5219 0001811 076.4773 283.6563 13.21814114045087"},{"CCSDS_OMM_VERS":"2.0","COMMENT":"GENERATED VIA SPACE-TRACK.ORG API","CREATION_DATE":"2020-02-04T01:33:09","ORIGINATOR":"18 SPCS","OBJECT_NAME":"ONEWEB-0007","OBJECT_ID":"2019-010D","CENTER_NAME":"EARTH","REF_FRAME":"TEME","TIME_SYSTEM":"UTC","MEAN_ELEMENT_THEORY":"SGP4","EPOCH":"2020-02-02T14:55:31.136160","MEAN_MOTION":"13.21814131","ECCENTRICITY":"0.00018080","INCLINATION":"87.9233","RA_OF_ASC_NODE":"1.4766","ARG_OF_PERICENTER":"76.4999","MEAN_ANOMALY":"283.6337","EPHEMERIS_TYPE":"0","CLASSIFICATION_TYPE":"U","NORAD_CAT_ID":"44060","ELEMENT_SET_NO":"999","REV_AT_EPOCH":"4511","BSTAR":"0.00013321000000","MEAN_MOTION_DOT":"0.00000068","MEAN_MOTION_DDOT":"0.0000000000000","SEMIMAJOR_AXIS":"7555.935","PERIOD":"108.941","APOAPSIS":"1179.166","PERIAPSIS":"1176.434","OBJECT_TYPE":"PAYLOAD","RCS_SIZE":"LARGE","COUNTRY_CODE":"UK","LAUNCH_DATE":"2019-02-27","SITE":"FRGUI","DECAY_DATE":null,"FILE":"2694587","GP_ID":"148019930","TLE_LINE0":"0 ONEWEB-0007","TLE_LINE1":"1 44060U 19010D   20033.62188815 +.00000068 +00000-0 +13321-3 0  9999","TLE_LINE2":"2 44060 087.9233 001.4766 0001808 076.4999 283.6337 13.21814131045111"},{"CCSDS_OMM_VERS":"2.0","COMMENT":"GENERATED VIA SPACE-TRACK.ORG API","CREATION_DATE":"2020-02-03T01:40:47","ORIGINATOR":"18 SPCS","OBJECT_NAME":"ONEWEB-0007","OBJECT_ID":"2019-010D","CENTER_NAME":"EARTH","REF_FRAME":"TEME","TIME_SYSTEM":"UTC","MEAN_ELEMENT_THEORY":"SGP4","EPOCH":"2020-02-02T22:11:32.043552","MEAN_MOTION":"13.21814171","ECCENTRICITY":"0.00018050","INCLINATION":"87.9233","RA_OF_ASC_NODE":"1.4162","ARG_OF_PERICENTER":"76.4431","MEAN_ANOMALY":"283.6904","EPHEMERIS_TYPE":"0","CLASSIFICATION_TYPE":"U","NORAD_CAT_ID":"44060","ELEMENT_SET_NO":"999","REV_AT_EPOCH":"4515","BSTAR":"0.00012021000000","MEAN_MOTION_DOT":"0.00000063","MEAN_MOTION_DDOT":"0.0000000000000","SEMIMAJOR_AXIS":"7555.935","PERIOD":"108.941","APOAPSIS":"1179.164","PERIAPSIS":"1176.436","OBJECT_TYPE":"PAYLOAD","RCS_SIZE":"LARGE","COUNTRY_CODE":"UK","LAUNCH_DATE":"2019-02-27","SITE":"FRGUI","DECAY_DATE":null,"FILE":"2694328","GP_ID":"147937048","TLE_LINE0":"0 ONEWEB-0007","TLE_LINE1":"1 44060U 19010D   20033.92467643 +.00000063 +00000-0 +12021-3 0  9992","TLE_LINE2":"2 44060 087.9233 001.4162 0001805 076.4431 283.6904 13.21814171045157"}]